AEROCUBE 6A             
1 40045U 14033AM  17345.61195109  .00000473  00000-0  75821-4 0  9997
2 40045  97.8469 226.1330 0059443  78.0615 282.7251 14.75005108186639
